NORAD_CAT_ID,OBJECT_NAME,OBJECT_TYPE,EPOCH,MEAN_MOTION,ECCENTRICITY,INCLINATION,RA_OF_ASC_NODE,ARG_OF_PERICENTER,MEAN_ANOMALY,BSTAR,MEAN_MOTION_DOT,MEAN_MOTION_DDOT,TLE_LINE0,TLE_LINE1,TLE_LINE2,SEMIMAJOR_AXIS,PERIOD,APOGEE,PERIGEE,DECAYED
53735.0,STARLINK-4618,PAYLOAD,2023-05-05 15:10:01,15.08836556,8.91e-05,53.2153,248.4441,100.5951,259.5141,2.628e-05,1.31e-06,0.0,0 STARLINK-4618,1 53735U 22107AM  23125.63195820  .00000131  00000-0  26280-4 0  9999,2 53735  53.2153 248.4441 0000891 100.5951 259.5141 15.08836556 37587,6917.891,95.438,540.372,539.14,0.0
53735.0,STARLINK-4618,PAYLOAD,2023-05-06 00:42:20,15.08832641,8.84e-05,53.2151,246.6608,92.8734,267.2359,-4.1151e-05,-9.42e-06,0.0,0 STARLINK-4618,1 53735U 22107AM  23126.02940152 -.00000942  00000-0 -41151-4 0  9995,2 53735  53.2151 246.6608 0000884  92.8734 267.2359 15.08832641 37010,6917.903,95.438,540.379,539.156,0.0
53735.0,STARLINK-4618,PAYLOAD,2023-05-06 13:25:24,15.08849775,0.0001115,53.2148,244.2831,96.3751,263.7368,6.7933e-05,7.94e-06,0.0,0 STARLINK-4618,1 53735U 22107AM  23126.55931634  .00000794  00000-0  67933-4 0  9997,2 53735  53.2148 244.2831 0001115  96.3751 263.7368 15.08849775 37729,6917.851,95.437,540.487,538.944,0.0
53735.0,STARLINK-4618,PAYLOAD,2023-05-07 00:33:06,15.08849642,0.0001013,53.2143,242.2011,106.4807,253.6297,1.7293e-05,-1.2e-07,0.0,0 STARLINK-4618,1 53735U 22107AM  23127.02299302 -.00000012  00000-0  17293-4 0  9997,2 53735  53.2143 242.2011 0001013 106.4807 253.6297 15.08849642 37164,6917.851,95.437,540.417,539.015,0.0
53735.0,STARLINK-4618,PAYLOAD,2023-05-07 13:16:12,15.08832455,0.000141,53.2161,239.8231,94.8923,265.223,0.00018324,2.629e-05,0.0,0 STARLINK-4618,1 53735U 22107AM  23127.55292571  .00002629  00000-0  18324-3 0  9996,2 53735  53.2161 239.8231 0001410  94.8923 265.2230 15.08832455 37249,6917.903,95.438,540.744,538.793,0.0
53735.0,STARLINK-4618,PAYLOAD,2023-05-07 14:51:35,15.08834097,0.0001247,53.2152,239.5245,91.1179,268.9956,0.00015782,2.224e-05,0.0,0 STARLINK-4618,1 53735U 22107AM  23127.61916457  .00002224  00000-0  15782-3 0  9995,2 53735  53.2152 239.5245 0001247  91.1179 268.9956 15.08834097 37881,6917.898,95.438,540.626,538.901,0.0
53735.0,STARLINK-4618,PAYLOAD,2023-05-08 14:42:22,15.08843392,0.0001368,53.2152,235.0641,101.2141,258.9005,0.00015927,2.248e-05,0.0,0 STARLINK-4618,1 53735U 22107AM  23128.61276194  .00002248  00000-0  15927-3 0  9990,2 53735  53.2152 235.0641 0001368 101.2141 258.9005 15.08843392 37408,6917.87,95.437,540.681,538.789,0.0
53735.0,STARLINK-4618,PAYLOAD,2023-05-09 12:57:46,15.08840086,0.0001343,53.2154,230.8997,79.9011,280.2133,6.2891e-05,7.13e-06,0.0,0 STARLINK-4618,1 53735U 22107AM  23129.54012584  .00000713  00000-0  62891-4 0  9992,2 53735  53.2154 230.8997 0001343  79.9011 280.2133 15.08840086 38179,6917.88,95.438,540.674,538.816,0.0
53735.0,STARLINK-4618,PAYLOAD,2023-05-10 12:48:33,15.08839759,0.000117,53.2148,226.4376,103.3769,256.7353,1.3479e-06,-2.66e-06,0.0,0 STARLINK-4618,1 53735U 22107AM  23130.53372658 -.00000266  00000-0  13479-5 0  9997,2 53735  53.2148 226.4376 0001170 103.3769 256.7353 15.08839759 38328,6917.881,95.438,540.556,538.937,0.0
53735.0,STARLINK-4618,PAYLOAD,2023-05-11 11:03:57,15.08845147,0.0001145,53.2146,222.2746,105.7842,254.3276,7.0464e-05,8.34e-06,0.0,0 STARLINK-4618,1 53735U 22107AM  23131.46108682  .00000834  00000-0  70464-4 0  9990,2 53735  53.2146 222.2746 0001145 105.7842 254.3276 15.08845147 38462,6917.865,95.437,540.522,538.938,0.0
53735.0,STARLINK-4618,PAYLOAD,2023-05-11 12:39:21,15.08844561,0.0001161,53.2147,221.9773,102.9708,257.1414,0.00010096,1.319e-05,0.0,0 STARLINK-4618,1 53735U 22107AM  23131.52732723  .00001319  00000-0  10096-3 0  9999,2 53735  53.2147 221.9773 0001161 102.9708 257.1414 15.08844561 38472,6917.866,95.437,540.535,538.928,0.0
53735.0,STARLINK-4618,PAYLOAD,2023-05-12 09:19:22,15.08837771,0.0001218,53.2144,218.1116,101.3075,258.8054,0.0001093,1.452e-05,0.0,0 STARLINK-4618,1 53735U 22107AM  23132.38845229  .00001452  00000-0  10930-3 0  9995,2 53735  53.2144 218.1116 0001218 101.3075 258.8054 15.08837771 37978,6917.887,95.438,540.595,538.91,0.0
53735.0,STARLINK-4618,PAYLOAD,2023-05-13 10:45:31,15.0884658,0.0001206,53.2144,213.3563,91.2926,268.8205,0.00016415,2.326e-05,0.0,0 STARLINK-4618,1 53735U 22107AM  23133.44828611  .00002326  00000-0  16415-3 0  9994,2 53735  53.2144 213.3563 0001206  91.2926 268.8205 15.08846580 38136,6917.86,95.437,540.56,538.891,0.0
53735.0,STARLINK-4618,PAYLOAD,2023-05-14 10:36:19,15.08830264,0.0001193,53.2142,208.8963,82.1679,277.9449,-0.00015209,-2.707e-05,0.0,0 STARLINK-4618,1 53735U 22107AM  23134.44189377 -.00002707  00000-0 -15209-3 0  9999,2 53735  53.2142 208.8963 0001193  82.1679 277.9449 15.08830264 38285,6917.91,95.438,540.6,538.95,0.0
53735.0,STARLINK-4618,PAYLOAD,2023-05-14 13:47:05,15.08830314,0.0001309,53.2149,208.2997,88.7315,271.3827,-0.00014328,-2.567e-05,0.0,0 STARLINK-4618,1 53735U 22107AM  23134.57437394 -.00002567  00000-0 -14328-3 0  9993,2 53735  53.2149 208.2997 0001309  88.7315 271.3827 15.08830314 38937,6917.91,95.438,540.681,538.869,0.0
53735.0,STARLINK-4618,PAYLOAD,2023-05-15 04:05:33,15.08862888,0.0001046,53.2141,205.6243,81.9261,278.185,-0.0007274,-0.00011853,0.0,0 STARLINK-4618,1 53735U 22107AM  23135.17052284 -.00011853  00000-0 -72740-3 0  9991,2 53735  53.2141 205.6243 0001046  81.9261 278.1850 15.08862888 38399,6917.81,95.436,540.399,538.952,0.0
53735.0,STARLINK-4618,PAYLOAD,2023-05-15 12:02:29,15.08844605,0.0001189,53.2144,204.1383,81.0317,279.0809,1.4507e-05,-5.7e-07,0.0,0 STARLINK-4618,1 53735U 22107AM  23135.50172948 -.00000057  00000-0  14507-4 0  9999,2 53735  53.2144 204.1383 0001189  81.0317 279.0809 15.08844605 38449,6917.866,95.437,540.554,538.909,0.0
53735.0,STARLINK-4618,PAYLOAD,2023-05-16 05:31:44,15.08835953,0.000123,53.2141,200.8673,80.2995,279.8136,0.00017359,2.476e-05,0.0,0 STARLINK-4618,1 53735U 22107AM  23136.23037657  .00002476  00000-0  17359-3 0  9990,2 53735  53.2141 200.8673 0001230  80.2995 279.8136 15.08835953 38550,6917.893,95.438,540.609,538.907,0.0
53735.0,STARLINK-4618,PAYLOAD,2023-05-16 11:53:16,15.0884152,0.000122,53.2142,199.6778,78.7399,281.373,0.00020474,2.972e-05,0.0,0 STARLINK-4618,1 53735U 22107AM  23136.49533482  .00002972  00000-0  20474-3 0  9998,2 53735  53.2142 199.6778 0001220  78.7399 281.3730 15.08841520 39221,6917.876,95.437,540.585,538.897,0.0
53735.0,STARLINK-4618,PAYLOAD,2023-05-17 10:08:40,15.08841597,0.0001236,53.2144,195.5149,81.0893,279.0239,0.00010805,1.432e-05,0.0,0 STARLINK-4618,1 53735U 22107AM  23137.42269566  .00001432  00000-0  10805-3 0  9998,2 53735  53.2144 195.5149 0001236  81.0893 279.0239 15.08841597 38730,6917.876,95.437,540.596,538.885,0.0
53735.0,STARLINK-4618,PAYLOAD,2023-05-17 21:16:22,15.08842341,0.0001181,53.2137,193.4315,86.9872,273.1255,0.00011095,1.478e-05,0.0,0 STARLINK-4618,1 53735U 22107AM  23137.88637441  .00001478  00000-0  11095-3 0  9991,2 53735  53.2137 193.4315 0001181  86.9872 273.1255 15.08842341 39433,6917.873,95.437,540.555,538.921,0.0
53735.0,STARLINK-4618,PAYLOAD,2023-05-18 13:10:14,15.08843088,0.0001222,53.2145,190.4579,89.8792,270.234,8.6959e-05,1.096e-05,0.0,0 STARLINK-4618,1 53735U 22107AM  23138.54877354  .00001096  00000-0  86959-4 0  9992,2 53735  53.2145 190.4579 0001222  89.8792 270.2340 15.08843088 39533,6917.871,95.437,540.581,538.891,0.0
53735.0,STARLINK-4618,PAYLOAD,2023-05-19 09:50:14,15.08840391,0.0001212,53.2143,186.5917,90.9234,269.1897,6.6038e-05,7.63e-06,0.0,0 STARLINK-4618,1 53735U 22107AM  23139.40989480  .00000763  00000-0  66038-4 0  9998,2 53735  53.2143 186.5917 0001212  90.9234 269.1897 15.08840391 39039,6917.879,95.438,540.583,538.906,0.0
53735.0,STARLINK-4618,PAYLOAD,2023-05-20 19:13:20,15.08845071,0.0001246,53.215,180.348,99.2974,260.8159,8.2716e-05,1.029e-05,0.0,0 STARLINK-4618,1 53735U 22107AM  23140.80093074  .00001029  00000-0  82716-4 0  9996,2 53735  53.2150 180.3480 0001246  99.2974 260.8159 15.08845071 39875,6917.865,95.437,540.592,538.868,0.0
53735.0,STARLINK-4618,PAYLOAD,2023-05-21 09:31:48,15.08847261,0.0001251,53.2145,177.6738,96.7283,263.3851,0.00013792,1.908e-05,0.0,0 STARLINK-4618,1 53735U 22107AM  23141.39708851  .00001908  00000-0  13792-3 0  9990,2 53735  53.2145 177.6738 0001251  96.7283 263.3851 15.08847261 39965,6917.858,95.437,540.589,538.858,0.0
53735.0,STARLINK-4618,PAYLOAD,2023-05-21 09:59:08,15.08853621,0.0001527,53.2166,177.5848,122.3831,340.8749,0.00028266,4.215e-05,0.0,0 STARLINK-4618,1 53735U 22107AM  23141.41606552  .00004215  00000-0  28266-3 0  9994,2 53735  53.2166 177.5848 0001527 122.3831 340.8749 15.08853621 39335,6917.839,95.437,540.76,538.647,0.0
53735.0,STARLINK-4618,PAYLOAD,2023-05-21 19:04:07,15.08839165,0.0001257,53.2141,175.8844,80.7494,279.364,9.5767e-06,-1.35e-06,0.0,0 STARLINK-4618,1 53735U 22107AM  23141.79453197 -.00000135  00000-0  95767-5 0  9990,2 53735  53.2141 175.8844 0001257  80.7494 279.3640 15.08839165 40028,6917.883,95.438,540.618,538.878,0.0
53735.0,STARLINK-4618,PAYLOAD,2023-05-22 09:22:36,15.08831893,0.0001272,53.2156,173.2089,84.607,275.5067,-4.1842e-05,-9.54e-06,0.0,0 STARLINK-4618,1 53735U 22107AM  23142.39070373 -.00000954  00000-0 -41842-4 0  9992,2 53735  53.2156 173.2089 0001272  84.6070 275.5067 15.08831893 39486,6917.905,95.438,540.65,538.89,0.0
53735.0,STARLINK-4618,PAYLOAD,2023-05-23 10:48:46,15.08836333,0.0001174,53.2147,168.4545,97.3699,262.7427,3.5826e-05,2.82e-06,0.0,0 STARLINK-4618,1 53735U 22107AM  23143.45054197  .00000282  00000-0  35826-4 0  9993,2 53735  53.2147 168.4545 0001174  97.3699 262.7427 15.08836333 39648,6917.892,95.438,540.569,538.944,0.0
53735.0,STARLINK-4618,PAYLOAD,2023-05-23 18:45:42,15.08835816,0.0001143,53.2149,166.9678,95.2922,264.8201,5.9343e-05,6.57e-06,0.0,0 STARLINK-4618,1 53735U 22107AM  23143.78174263  .00000657  00000-0  59343-4 0  9992,2 53735  53.2149 166.9678 0001143  95.2922 264.8201 15.08835816 40327,6917.893,95.438,540.549,538.967,0.0
